     2.10           G: GLONASS NAV DATA                     RINEX VERSION / TYPE
teqc  2015Jun23                         20220619 01:25:42UTCPGM / RUN BY / DATE
Linux 2.4.21-27.ELsmp|Opteron|gcc -static|Linux x86_64|=+   COMMENT
  2022     6     8   -4.656612873077D-10                    CORR TO SYSTEM TIME
                                                            END OF HEADER
 9 22  6  9  6 45  0.0 5.953758955002D-05 1.818989403546D-12 2.340000000000D+04
    1.216998437500D+04 1.558990478516D-01 2.793967723846D-09 0.000000000000D+00
    2.234829785156D+04 7.583332061768D-02 0.000000000000D+00-2.000000000000D+00
    1.033658203125D+03-3.546368598938D+00 9.313225746155D-10 0.000000000000D+00
 4 22  6  9  6 45  0.0 1.455778256059D-04 1.818989403546D-12 2.340000000000D+04
   -1.684503906250D+04 9.834632873535D-01-9.313225746155D-10 0.000000000000D+00
    1.565590332031D+04-1.159563064575D+00-9.313225746155D-10 6.000000000000D+00
    1.107594140625D+04 3.143033027649D+00-9.313225746155D-10 0.000000000000D+00
10 22  6  9  6 45  0.0-8.315220475197D-05-0.000000000000D+00 2.499000000000D+04
    1.520331054688D+04 1.084393501282D+00 2.793967723846D-09 0.000000000000D+00
    1.314703662109D+04 1.864465713501D+00 9.313225746155D-10-7.000000000000D+00
    1.574531689453D+04-2.596425056458D+00-9.313225746155D-10 0.000000000000D+00
 5 22  6  9  7 15  0.0 9.430758655071D-05 9.094947017729D-13 2.520000000000D+04
   -1.165035839844D+04 1.942920684814D-01-0.000000000000D+00 0.000000000000D+00
    2.270077734375D+04 3.326606750488D-02-9.313225746155D-10 1.000000000000D+00
    4.364252929688D+02 3.579434394836D+00 0.000000000000D+00 0.000000000000D+00
 9 22  6  9  7 15  0.0 5.954038351774D-05 1.818989403546D-12 2.520000000000D+04
    1.203614208984D+04-3.360233306885D-01 1.862645149231D-09 0.000000000000D+00
    2.180379248047D+04-6.562318801880D-01-0.000000000000D+00-2.000000000000D+00
   -5.307068359375D+03-3.452893257141D+00 9.313225746155D-10 0.000000000000D+00
 4 22  6  9  7 15  0.0 1.455815508962D-04 1.818989403546D-12 2.520000000000D+04
   -1.491997998047D+04 1.111113548279D+00-9.313225746155D-10 0.000000000000D+00
    1.287271386719D+04-1.922793388367D+00-0.000000000000D+00 6.000000000000D+00
    1.623322363281D+04 2.550233840942D+00-1.862645149231D-09 0.000000000000D+00
10 22  6  9  7 15  0.0-8.315220475197D-05 0.000000000000D+00 2.520000000000D+04
    1.705899511719D+04 9.338207244873D-01 2.793967723846D-09 0.000000000000D+00
    1.582658447266D+04 1.104496955872D+00 0.000000000000D+00-7.000000000000D+00
    1.052512255859D+04-3.166178703308D+00-0.000000000000D+00 0.000000000000D+00
 6 22  6  9  7 15  0.0-5.291495472193D-05-1.818989403546D-12 2.532000000000D+04
    8.489360351562D+02-9.267320632935D-01 9.313225746155D-10 0.000000000000D+00
    1.839815039062D+04 2.233183860779D+00-9.313225746155D-10-4.000000000000D+00
   -1.766255371094D+04 2.280506134033D+00 1.862645149231D-09 0.000000000000D+00
 5 22  6  9  7 45  0.0 9.430851787329D-05 9.094947017729D-13 2.700000000000D+04
   -1.101137548828D+04 4.748315811157D-01-9.313225746155D-10 0.000000000000D+00
    2.200459326172D+04-8.151426315308D-01-9.313225746155D-10 1.000000000000D+00
    6.779428222656D+03 3.422656059265D+00-0.000000000000D+00 0.000000000000D+00
 9 22  6  9  7 45  0.0 5.954224616289D-05 1.818989403546D-12 2.700000000000D+04
    1.087096484375D+04-9.758443832397D-01 1.862645149231D-09 0.000000000000D+00
    2.010011718750D+04-1.199008941650D+00-9.313225746155D-10-2.000000000000D+00
   -1.123529101562D+04-3.091023445129D+00 1.862645149231D-09 0.000000000000D+00
 4 22  6  9  7 45  0.0 1.455862075090D-04 1.818989403546D-12 2.700000000000D+04
   -1.299814941406D+04 9.850416183472D-01-9.313225746155D-10 0.000000000000D+00
    8.803954101562D+03-2.569689750671D+00 0.000000000000D+00 6.000000000000D+00
    2.013876611328D+04 1.761240005493D+00-1.862645149231D-09 0.000000000000D+00
 6 22  6  9  7 45  0.0-5.291868001223D-05-1.818989403546D-12 2.700000000000D+04
   -3.377944335938D+02-4.075012207031D-01 0.000000000000D+00 0.000000000000D+00
    2.199923339844D+04 1.725021362305D+00-9.313225746155D-10-4.000000000000D+00
   -1.292864062500D+04 2.945284843445D+00 1.862645149231D-09 0.000000000000D+00
10 22  6  9  7 45  0.0-8.315220475197D-05 0.000000000000D+00 2.700000000000D+04
    1.841079736328D+04 5.276460647583D-01 2.793967723846D-09 0.000000000000D+00
    1.712769042969D+04 3.517837524414D-01-0.000000000000D+00-7.000000000000D+00
    4.493984375000D+03-3.491712570190D+00 0.000000000000D+00 0.000000000000D+00
 5 22  6  9  8 15  0.0 9.431038051844D-05 9.094947017729D-13 2.880000000000D+04
   -1.009294189453D+04 5.036239624023D-01-9.313225746155D-10 0.000000000000D+00
    1.977154101562D+04-1.654715538025D+00-0.000000000000D+00 1.000000000000D+00
    1.259910595703D+04 3.001759529114D+00-9.313225746155D-10 0.000000000000D+00
 9 22  6  9  8 15  0.0 5.954504013062D-05 1.818989403546D-12 2.880000000000D+04
    8.492367675781D+03-1.666444778442D+00 0.000000000000D+00 0.000000000000D+00
    1.763765087891D+04-1.492755889893D+00-9.313225746155D-10-2.000000000000D+00
   -1.629031445312D+04-2.489059448242D+00 1.862645149231D-09 0.000000000000D+00
 6 22  6  9  8 15  0.0-5.292147397995D-05-1.818989403546D-12 2.880000000000D+04
   -7.020136718750D+02-2.724266052246D-02-0.000000000000D+00 0.000000000000D+00
    2.447358691406D+04 9.936704635620D-01-9.313225746155D-10-4.000000000000D+00
   -7.196339843750D+03 3.382636070251D+00 9.313225746155D-10 0.000000000000D+00
10 22  6  9  8 15  0.0-8.315220475197D-05 0.000000000000D+00 2.880000000000D+04
    1.882865332031D+04-9.367370605469D-02 2.793967723846D-09 0.000000000000D+00
    1.716227880859D+04-2.862501144409D-01-9.313225746155D-10-7.000000000000D+00
   -1.883248046875D+03-3.548280715942D+00 9.313225746155D-10 0.000000000000D+00
 7 22  6  9  8 15  0.0 3.619398921728D-05 0.000000000000D+00 2.898000000000D+04
    7.058276855469D+03-4.677696228027D-01 0.000000000000D+00 0.000000000000D+00
    1.372584033203D+04 2.747684478760D+00-9.313225746155D-10 5.000000000000D+00
   -2.028011767578D+04 1.689144134521D+00 2.793967723846D-09 0.000000000000D+00
 5 22  6  9  8 45  0.0 9.431224316359D-05 9.094947017729D-13 3.060000000000D+04
   -9.340732910156D+03 2.965183258057D-01-9.313225746155D-10 0.000000000000D+00
    1.612227148438D+04-2.370451927185D+00-0.000000000000D+00 1.000000000000D+00
    1.744649511719D+04 2.349347114563D+00-1.862645149231D-09 0.000000000000D+00
 9 22  6  9  8 45  0.0 5.954783409834D-05 1.818989403546D-12 3.060000000000D+04
    4.907526855469D+03-2.297622680664D+00-0.000000000000D+00 0.000000000000D+00
    1.488673388672D+04-1.520464897156D+00-9.313225746155D-10-2.000000000000D+00
   -2.007986523438D+04-1.694202423096D+00 2.793967723846D-09 0.000000000000D+00
 6 22  6  9  8 45  0.0-5.292519927025D-05-1.818989403546D-12 3.060000000000D+04
   -5.620781250000D+02 1.440000534058D-01-9.313225746155D-10 0.000000000000D+00
    2.549617236328D+04 1.292552947998D-01-9.313225746155D-10-4.000000000000D+00
   -9.082817382812D+02 3.558780670166D+00 0.000000000000D+00 0.000000000000D+00
 7 22  6  9  8 45  0.0 3.619398921728D-05 0.000000000000D+00 3.060000000000D+04
    6.625074707031D+03-3.209209442139D-02 0.000000000000D+00 0.000000000000D+00
    1.828062988281D+04 2.268552780151D+00-9.313225746155D-10 5.000000000000D+00
   -1.649333935547D+04 2.490841865540D+00 1.862645149231D-09 0.000000000000D+00
10 22  6  9  8 45  0.0-8.315220475197D-05 0.000000000000D+00 3.060000000000D+04
    1.799118164062D+04-8.514328002930D-01 1.862645149231D-09 0.000000000000D+00
    1.621754785156D+04-7.249212265015D-01-9.313225746155D-10-7.000000000000D+00
   -8.115489257812D+03-3.331654548645D+00 1.862645149231D-09 0.000000000000D+00
20 22  6  9  8 45  0.0-7.228646427393D-05-0.000000000000D+00 3.060000000000D+04
   -9.451482910156D+03-2.374388694763D+00-9.313225746155D-10 0.000000000000D+00
    1.360656738281D+04 1.211051940918D+00 0.000000000000D+00 2.000000000000D+00
    1.941186718750D+04-2.001028060913D+00-1.862645149231D-09 0.000000000000D+00
19 22  6  9  8 45  0.0-1.920647919178D-04-9.094947017729D-13 3.096000000000D+04
   -2.287377783203D+04-1.375789642334D-01-3.725290298462D-09 0.000000000000D+00
    1.112078466797D+04 3.411598205566D-01 0.000000000000D+00 3.000000000000D+00
    1.919648437500D+03-3.601325035095D+00-0.000000000000D+00 0.000000000000D+00
 5 22  6  9  9 15  0.0 9.431317448616D-05 9.094947017729D-13 3.240000000000D+04
   -9.132756347656D+03-8.829212188721D-02-9.313225746155D-10 0.000000000000D+00
    1.137151562500D+04-2.864641189575D+00 0.000000000000D+00 1.000000000000D+00
    2.094776220703D+04 1.515748023987D+00-1.862645149231D-09 0.000000000000D+00
 9 22  6  9  9 15  0.0 5.955062806606D-05 1.818989403546D-12 3.240000000000D+04
    3.199760742188D+02-2.764494895935D+00-9.313225746155D-10 0.000000000000D+00
    1.230771728516D+04-1.309946060181D+00-9.313225746155D-10-2.000000000000D+00
   -2.231085009766D+04-7.686920166016D-01 2.793967723846D-09 0.000000000000D+00
 6 22  6  9  9 15  0.0-5.292892456055D-05-1.818989403546D-12 3.240000000000D+04
   -3.283955078125D+02 7.544898986816D-02-9.313225746155D-10 0.000000000000D+00
    2.492590283203D+04-7.567100524902D-01-9.313225746155D-10-4.000000000000D+00
    5.449920410156D+03 3.460054397583D+00-0.000000000000D+00 0.000000000000D+00
 7 22  6  9  9 15  0.0 3.619492053986D-05 0.000000000000D+00 3.240000000000D+04
    6.849315429688D+03 2.488718032837D-01-0.000000000000D+00 0.000000000000D+00
    2.175313281250D+04 1.558117866516D+00-9.313225746155D-10 5.000000000000D+00
   -1.142964941406D+04 3.098785400391D+00 1.862645149231D-09 0.000000000000D+00
10 22  6  9  9 15  0.0-8.315127342939D-05 0.000000000000D+00 3.240000000000D+04
    1.574414843750D+04-1.641126632690D+00 9.313225746155D-10 0.000000000000D+00
    1.470215917969D+04-9.157524108887D-01-9.313225746155D-10-7.000000000000D+00
   -1.372283837891D+04-2.858409881592D+00 1.862645149231D-09 0.000000000000D+00
